SKYSAT-C13              
1 43802U 18099AW  26087.68286984  .00120491  00000+0  63000-3 0  9996
2 43802  96.9362 135.4049 0005511 148.1924 211.9679 15.80487986410164
